CORVUS BC1              
1 42847U 17042Y   25339.27836396  .00008540  00000+0  60667-3 0  9999
2 42847  97.3871 144.3025 0012961  36.0188 324.1909 15.04867777457912
MAKERSAT 0              
1 43016U 17073D   25339.10502247  .00033554  00000+0  11388-2 0  9997
2 43016  97.4889 216.0267 0126485 238.4387 120.4450 15.23013295436837
SIRION PATHFINDER-2     
1 43759U 18099B   25339.07011761  .00012445  00000+0  72348-3 0  9992
2 43759  97.4552  27.7260 0007672 247.8410 112.2007 15.12195521383261
CORVUS BC4              
1 43767U 18099K   25339.09455497  .00010964  00000+0  66985-3 0  9995
2 43767  97.4360  22.7033 0007618 318.7489  41.3165 15.10424221383081
SPACEBEE-7              
1 43816U 18099BL  25339.19934884  .00136410  00000+0  18935-2 0  9999
2 43816  97.4740  54.5061 0003681 190.9783 169.1392 15.56552155384355
SHIELDS 1               
1 43850U 18104B   25339.28798209  .00151077  00000+0  70353-3 0  9992
2 43850  85.0076 269.1601 0007530 117.1113 243.0931 15.82903506389475
DUCHIFAT-3              
1 44854U 19089C   25337.20011490  .01105376  61298-3  19590-2 0  9997
2 44854  36.9264 289.0060 0011658 216.1192 143.8795 16.00863037330619
M2 PATHFINDER           
1 45727U 20037E   25339.25981676  .00006178  00000+0  45760-3 0  9999
2 45727  97.8130 163.4210 0013090  88.0185 272.2539 15.03432384296342
NETSAT-4                
1 46504U 20068U   25339.20843897  .00027007  00000+0  76076-3 0  9992
2 46504  97.8587 327.9890 0004680 305.8021  54.2786 15.36414835285917
NETSAT-3                
1 46505U 20068V   25338.78732736  .00033863  00000+0  99809-3 0  9990
2 46505  97.8609 326.0751 0005046 330.1567  29.9386 15.34941614285780
NETSAT-1                
1 46506U 20068W   25338.94289799  .00024641  00000+0  88137-3 0  9991
2 46506  97.8659 322.6087 0005441 349.2669  10.8453 15.28782916285564
NETSAT-2                
1 46507U 20068X   25338.94960524  .00034149  00000+0  94868-3 0  9996
2 46507  97.8597 327.1815 0004308 355.0103   5.1096 15.36798964285811
WILDTRACKCUBE-SIMBA     
1 47941U 21022K   25339.30954884  .00129635  00000+0  12977-2 0  9998
2 47941  97.4067 249.5902 0008668  42.5116 317.6813 15.65101485260922
GREENCUBE (IO-117)      
1 53109U 22080E   25337.39365957 -.00000003  00000+0  00000+0 0  9999
2 53109  70.1598   6.3318 0009090 328.2347  31.7764  6.42583049 79485
SITRO-AIS 5 (KATYS)     
1 57176U 23091L   25339.29851429  .00020547  00000+0  84212-3 0  9990
2 57176  97.5358  36.7731 0014065  68.4689 291.8046 15.24212003134759
SITRO-AIS 6 (CHIRKIN)   
1 57192U 23091AC  25339.27296774  .00012468  00000+0  53455-3 0  9990
2 57192  97.5359  36.6320 0014358  70.0750 290.2032 15.22796890134740
SITRO-AIS 8 (ANOKHIN)   
1 57193U 23091AD  25339.27735944  .00023394  00000+0  90650-3 0  9996
2 57193  97.5351  37.6757 0013241  66.9164 293.3468 15.26073588134812
SITRO-AIS 7 (FARTUSHNIY)
1 57194U 23091AE  25339.30973284  .00012887  00000+0  55561-3 0  9999
2 57194  97.5360  36.5721 0014206  70.6381 289.6390 15.22601136134743
SITRO-AIS 10 (BURDAEV)  
1 57199U 23091AK  25339.27707317  .00029935  00000+0  10135-2 0  9991
2 57199  97.5369  41.0625 0008973  50.2624 309.9406 15.30504308135027
SITRO-AIS 9 (SHCHUKIN)  
1 57201U 23091AM  25339.32038170  .00029053  00000+0  99241-3 0  9992
2 57201  97.5369  40.9545 0008975  50.5165 309.6867 15.30221829135027
SITRO-AIS 12 (SMIRENNIY)
1 57204U 23091AQ  25339.27772076  .00029273  00000+0  99308-3 0  9997
2 57204  97.5377  41.2738 0008744  44.6686 315.5257 15.30446196135039
SITRO-AIS 11 (SHEFFER)  
1 57208U 23091AU  25339.26953957  .00030263  00000+0  10182-2 0  9992
2 57208  97.5377  41.4134 0008656  44.5279 315.6655 15.30709059135048
SITRO-AIS 25            
1 59066U 24039R   25339.29112020  .00010069  00000+0  82059-3 0  9995
2 59066  95.3958 101.9795 0148309 285.3614  73.1264 14.91296554 95804
SITRO-AIS 26            
1 59067U 24039S   25339.33537406  .00009049  00000+0  74049-3 0  9996
2 59067  95.3957 101.9432 0148703 285.5828  72.9025 14.91127405 95809
SITRO-AIS 27            
1 59068U 24039T   25339.28974843  .00009930  00000+0  80637-3 0  9990
2 59068  95.3958 102.1005 0147740 284.7614  73.7279 14.91492604 95811
SITRO-AIS 28            
1 59071U 24039U   25339.27189235  .00009629  00000+0  78104-3 0  9997
2 59071  95.3957 102.1252 0147764 284.6932  73.7953 14.91535082 95813
GRBBETA                 
1 60237U 24128C   25338.97626529  .00009891  00000+0  68985-3 0  9997
2 60237  61.9885 176.7128 0056597  95.1552 265.6002 15.04633921 77029
OOV-CUBE (TUBSAT-30)    
1 60240U 24128F   25339.28849307  .00005522  00000+0  42483-3 0  9999
2 60240  61.9934 181.1178 0058623  92.7637 268.0165 15.01536800 76988
ROBUSTA-3A (MEDITERRAN*)
1 60243U 24128J   25339.24057175  .00012987  00000+0  82066-3 0  9996
2 60243  61.9850 172.3410 0056451  89.5811 271.1750 15.08051880 77134
LASARSAT                
1 62391U 24247Q   25339.18490763  .00042343  00000+0  12642-2 0  9992
2 62391  44.9792 262.3064 0001916  57.4836 302.6234 15.33996727 53405
CROCUBE                 
1 62394U 24247T   25339.20311184  .00044474  00000+0  13006-2 0  9999
2 62394  44.9746 261.5381 0003269  69.8936 290.2301 15.34626820 53414
